ORBCOMM FM37            
1 33064U 08031E   25089.81059164  .00003306  00000+0  46675-3 0  9998
2 33064  48.4409 356.1490 0005402  34.6936  36.1577 14.79369618902449
ORBCOMM FM40            
1 33065U 08031F   25089.83386295  .00003713  00000+0  49526-3 0  9999
2 33065  48.4425 341.3563 0006518  49.1363 351.7680 14.81504216902549
VESSELSAT 1             
1 37840U 11058C   25089.40889866  .00000485  00000+0  11996-3 0  9995
2 37840  19.9606 210.5703 0013759  40.3808 319.7616 14.11331193695168
ORBCOMM FM109           
1 40086U 14040A   25089.79563558  .00001615  00000+0  38481-3 0  9998
2 40086  47.0042  26.4812 0002296 328.0807  31.9939 14.57992747569624
ORBCOMM FM107           
1 40087U 14040B   25089.82770140  .00001669  00000+0  39592-3 0  9993
2 40087  47.0056  27.3209 0001953 287.1668  72.9004 14.58055279569707
ORBCOMM FM106           
1 40088U 14040C   25089.62614611  .00002694  00000+0  48375-3 0  9990
2 40088  47.0591 216.6489 0016030  61.2729 298.9770 14.69178063571922
ORBCOMM FM111           
1 40089U 14040D   25089.35596896  .00005479  00000+0  64341-3 0  9990
2 40089  47.0005  78.6721 0029833 176.4925 183.6186 14.85713781578502
ORBCOMM FM104           
1 40090U 14040E   25089.86771347  .00001462  00000+0  36284-3 0  9997
2 40090  47.0053  59.8028 0016556 210.3127 149.6802 14.56480536569209
